ONEWEB-0201             
1 48241U 21031AH  23170.69865346  .00000158  00000+0  39036-3 0  9993
2 48241  87.9034 147.3435 0001960  89.0521 271.0833 13.14505329104721
ONEWEB-0207             
1 48242U 21031AJ  23170.67327061 -.00000005  00000+0 -48337-4 0  9997
2 48242  87.9032 147.3157 0002169  92.1832 267.9546 13.14506574104631
ONEWEB-0208             
1 48243U 21031AK  23170.65107185 -.00000264  00000+0 -74783-3 0  9999
2 48243  87.9032 147.3394 0001772  89.3292 270.8041 13.14501495104643
ONEWEB-0200             
1 48244U 21031AL  23170.99572260  .00000234  00000+0  59686-3 0  9997
2 48244  87.9027 147.2606 0001743  90.3616 269.7713 13.14500865104624
ONEWEB-0217             
1 48245U 21031AM  23170.63204856  .00000113  00000+0  27018-3 0  9992
2 48245  87.9033 147.3136 0001559  88.6716 271.4592 13.14505251104514
ONEWEB-0211             
1 48767U 21045A   23170.54354802  .00000102  00000+0  23611-3 0  9996
2 48767  87.9021 116.9593 0001956  80.8995 279.2357 13.15546496100623
ONEWEB-0223             
1 48768U 21045B   23170.56467870 -.00000085  00000+0 -25889-3 0  9990
2 48768  87.9018 116.9616 0001771  68.8815 291.2505 13.15550039101750
ONEWEB-0230             
1 48769U 21045C   23170.61328331  .00000109  00000+0  25640-3 0  9995
2 48769  87.9037 117.0013 0002128  79.7560 280.3810 13.15543899100887
ONEWEB-0237             
1 48770U 21045D   23170.60270731  .00000203  00000+0  50574-3 0  9995
2 48770  87.9022 116.9334 0002056  64.1456 295.9886 13.15547061100609
ONEWEB-0235             
1 48771U 21045E   23171.10765101 -.00000128  00000+0 -37361-3 0  9999
2 48771  87.9020 116.8660 0002186  54.5832 305.5502 13.15550187101780
ONEWEB-0242             
1 48772U 21045F   23171.10129782 -.00000402  00000+0 -11018-2 0  9994
2 48772  87.9020 116.8588 0002143  72.9972 287.1393 13.15546644101834
ONEWEB-0241             
1 48773U 21045G   23171.08862576  .00000073  00000+0  16084-3 0  9998
2 48773  87.9031 116.8738 0001517  73.0100 287.1196 13.15547165101743
ONEWEB-0243             
1 48774U 21045H   23170.58792736  .00000007  00000+0 -14636-4 0  9993
2 48774  87.9016 116.9394 0002222  65.3378 294.7984 13.15549668100570
ONEWEB-0222             
1 48775U 21045J   23170.34917363 -.00000046  00000+0 -15572-3 0  9996
2 48775  87.9018 117.0233 0001865  72.7708 287.3626 13.15551243100582
ONEWEB-0244             
1 48776U 21045K   23170.59849119  .00000161  00000+0  39307-3 0  9995
2 48776  87.9016 116.9588 0002400  73.4974 286.6420 13.15544715101188
ONEWEB-0247             
1 48777U 21045L   23171.12664892  .00000009  00000+0 -10166-4 0  9994
2 48777  87.9028 116.8544 0001998  60.7593 299.3737 13.15547203101828
ONEWEB-0245             
1 48778U 21045M   23170.36185815  .00000019  00000+0  17621-4 0  9996
2 48778  87.9017 117.0313 0001692  80.3091 279.8230 13.15547058100565
ONEWEB-0229             
1 48779U 21045N   23171.11608105 -.00000118  00000+0 -34681-3 0  9999
2 48779  87.9019 116.8698 0002267  74.3694 285.7686 13.15545255101820
ONEWEB-0228             
1 48780U 21045P   23170.59742344  .00000083  00000+0  18553-3 0  9995
2 48780  87.9017 116.9556 0002147  75.4474 284.6894 13.15550409100543
ONEWEB-0232             
1 48781U 21045Q   23170.59212868 -.00000816  00000+0 -22024-2 0  9992
2 48781  87.9044 117.0308 0002158  84.0534 276.0842 13.15543697100860
ONEWEB-0231             
1 48782U 21045R   23170.57102279 -.00000149  00000+0 -43028-3 0  9992
2 48782  87.9029 116.9742 0002015  69.2199 290.9147 13.15549879101691
ONEWEB-0234             
1 48783U 21045S   23170.59635550 -.00000189  00000+0 -53570-3 0  9995
2 48783  87.9018 116.9610 0001796  86.5957 273.5379 13.15549748100691
ONEWEB-0238             
1 48784U 21045T   23170.60798881  .00000165  00000+0  40442-3 0  9991
2 48784  87.9020 116.9688 0001961  85.1430 274.9924 13.15546018100592
ONEWEB-0240             
1 48785U 21045U   23170.55411716  .00000024  00000+0  28899-4 0  9992
2 48785  87.9022 116.9542 0001581  70.8603 289.2698 13.15549739100618
ONEWEB-0246             
1 48786U 21045V   23171.08228851  .00000154  00000+0  37468-3 0  9993
2 48786  87.9022 116.8492 0002025  64.7428 295.3912 13.15545651101676
ONEWEB-0210             
1 48787U 21045W   23170.60058449 -.00000227  00000+0 -63760-3 0  9992
2 48787  87.9018 116.9547 0002602  63.2046 296.9350 13.15547590100536
ONEWEB-0214             
1 48788U 21045X   23170.61115334  .00000241  00000+0  60536-3 0  9993
2 48788  87.9020 116.9417 0002732  67.0704 293.0715 13.15546470100509
ONEWEB-0221             
1 48789U 21045Y   23171.14990798  .00000236  00000+0  59232-3 0  9993
2 48789  87.9023 116.8424 0001882  73.2380 286.8956 13.15547450101804
ONEWEB-0213             
1 48790U 21045Z   23170.60480997  .00000196  00000+0  48742-3 0  9999
2 48790  87.9021 116.9701 0002048  66.6834 293.4512 13.15550707100651
ONEWEB-0212             
1 48791U 21045AA  23170.58579351 -.00000018  00000+0 -81266-4 0  9994
2 48791  87.9020 116.9546 0002109  88.5323 271.6049 13.15550591100645
ONEWEB-0227             
1 48792U 21045AB  23170.57947206 -.00000098  00000+0 -29554-3 0  9991
2 48792  87.9021 116.9695 0001904  78.7222 281.4122 13.15546545100592
ONEWEB-0226             
1 48793U 21045AC  23171.10553850  .00001169  00000+0  30716-2 0  9999
2 48793  87.9023 116.8740 0002309  63.5908 296.5459 13.15543985101752
ONEWEB-0224             
1 48794U 21045AD  23171.14778322  .00000201  00000+0  50018-3 0  9991
2 48794  87.9035 116.8586 0001549  95.6547 264.4760 13.15548435101680
ONEWEB-0233             
1 48795U 21045AE  23170.60890694  .00000196  00000+0  48786-3 0  9991
2 48795  87.9046 117.0477 0002008  80.3497 279.7860 13.15545861100501
ONEWEB-0190             
1 48796U 21045AF  23170.60693943  .00000296  00000+0  75147-3 0  9992
2 48796  87.9017 116.9735 0002127  45.9121 314.2184 13.15546923100580
ONEWEB-0236             
1 48797U 21045AG  23170.54776101  .00000100  00000+0  23095-3 0  9993
2 48797  87.9019 116.9559 0001945  79.6664 280.4685 13.15546895100465
ONEWEB-0248             
1 48798U 21045AH  23170.56046531 -.00000015  00000+0 -73798-4 0  9996
2 48798  87.9022 116.9677 0001363  60.0669 300.0596 13.15547368100628
ONEWEB-0225             
1 48799U 21045AJ  23170.96186781 -.00000063  00000+0 -20047-3 0  9994
2 48799  87.9014 116.9034 0001916  61.5230 298.6093 13.15550075101827
ONEWEB-0215             
1 48800U 21045AK  23171.08440790  .00000114  00000+0  26898-3 0  9999
2 48800  87.9020 116.8527 0001623  50.2922 309.8352 13.15550607101690
ONEWEB-0216             
1 48801U 21045AL  23171.09498293 -.00000017  00000+0 -78326-4 0  9990
2 48801  87.9019 116.8876 0002404  74.1641 285.9754 13.15548566101700
ONEWEB-0239             
1 48802U 21045AM  23170.33860426 -.00000049  00000+0 -16408-3 0  9995
2 48802  87.9020 116.9881 0001473  51.2527 308.8735 13.15545553100520
ONEWEB-0249             
1 48967U 21060A   23171.06384203  .00000131  00000+0  30971-3 0  9990
2 48967  87.9025  86.3856 0002055  80.7577 279.3787 13.16595302 97069
ONEWEB-0250             
1 48968U 21060B   23170.53606893  .00000056  00000+0  11344-3 0  9993
2 48968  87.9028  86.4997 0001702  70.5681 289.5634 13.16591887 96978
ONEWEB-0252             
1 48970U 21060D   23171.17148725 -.00000064  00000+0 -20058-3 0  9995
2 48970  87.9035  86.3740 0002222  75.5981 284.5396 13.16596468 97128
ONEWEB-0253             
1 48971U 21060E   23171.00894011  .00000060  00000+0  12424-3 0  9996
2 48971  87.9142  86.4242 0002030  64.5466 295.5874 13.16591721 97028
ONEWEB-0254             
1 48972U 21060F   23170.48539983 -.00000479  00000+0 -12870-2 0  9992
2 48972  87.9037  86.4994 0001889  67.0617 293.0713 13.16593284 96955
ONEWEB-0255             
1 48973U 21060G   23170.52341981  .00000036  00000+0  61501-4 0  9991
2 48973  87.9024  86.5373 0001973  77.7525 282.3827 13.16594513 97048
ONEWEB-0256             
1 48974U 21060H   23171.00473344  .00000030  00000+0  44589-4 0  9996
2 48974  87.9041  86.4337 0002320  77.8604 282.2787 13.16595443 97073
ONEWEB-0257             
1 48975U 21060J   23170.50651214  .00000032  00000+0  50912-4 0  9994
2 48975  87.9018  86.5195 0002212  73.6871 286.4503 13.16596022 95671
ONEWEB-0258             
1 48976U 21060K   23170.50862699  .00000079  00000+0  17411-3 0  9993
2 48976  87.9025  86.5421 0001880  77.3128 282.8213 13.16591984 95689
ONEWEB-0259             
1 48977U 21060L   23170.50229940  .00000017  00000+0  10109-4 0  9990
2 48977  87.9027  86.5264 0001650  73.1299 287.0013 13.16595836 95714
ONEWEB-0260             
1 48978U 21060M   23171.17992808 -.00000038  00000+0 -13394-3 0  9998
2 48978  87.9129  86.3620 0002810  70.3089 289.8345 13.16596579 97060
ONEWEB-0261             
1 48979U 21060N   23170.31019125  .00000150  00000+0  35895-3 0  9999
2 48979  87.9022  86.5421 0002133  66.7501 293.3854 13.16596250 95722
ONEWEB-0262             
1 48980U 21060P   23170.51916932  .00000081  00000+0  17812-3 0  9997
2 48980  87.9036  86.5043 0001500  64.4778 295.6507 13.16597019 95710
ONEWEB-0263             
1 48981U 21060Q   23170.32286807  .00000016  00000+0  93626-5 0  9995
2 48981  87.9043  86.5560 0001825  59.9328 300.1984 13.16597582 95652
ONEWEB-0264             
1 48982U 21060R   23171.04378298  .00000040  00000+0  71246-4 0  9992
2 48982  87.9049  86.4049 0001991  76.8247 283.3106 13.16596237 97041
ONEWEB-0266             
1 48984U 21060T   23171.06595527  .00000132  00000+0  31055-3 0  9997
2 48984  87.9035  86.4015 0001928  81.6172 278.5178 13.16596138 97047
ONEWEB-0267             
1 48985U 21060U   23171.15250051 -.00005243  00000+0 -13750-1 0  9998
2 48985  87.9037  86.3843 0002079  62.7499 297.3844 13.16620044 97052
ONEWEB-0268             
1 48986U 21060V   23170.51284390 -.00001747  00000+0 -46037-2 0  9991
2 48986  87.9033  86.5146 0002614  73.2501 286.8917 13.16596372 95949
